[{"OBJECT_NAME":"STARLINK-33626","OBJECT_ID":"2025-063G","EPOCH":"2026-03-09T22:53:47.397984","MEAN_MOTION":15.30183502,"ECCENTRICITY":0.00016811,"INCLINATION":53.1608,"RA_OF_ASC_NODE":48.8378,"ARG_OF_PERICENTER":109.3985,"MEAN_ANOMALY":250.7197,"EPHEMERIS_TYPE":0,"CLASSIFICATION_TYPE":"U","NORAD_CAT_ID":63369,"ELEMENT_SET_NO":999,"REV_AT_EPOCH":5478,"BSTAR":0.00055099422,"MEAN_MOTION_DOT":0.00015987,"MEAN_MOTION_DDOT":0},{"OBJECT_NAME":"ATLAS 28E DEB","OBJECT_ID":"1990-031H","EPOCH":"2026-03-09T12:57:08.289792","MEAN_MOTION":15.28884159,"ECCENTRICITY":0.00278203,"INCLINATION":89.4108,"RA_OF_ASC_NODE":276.7439,"ARG_OF_PERICENTER":214.1843,"MEAN_ANOMALY":145.7617,"EPHEMERIS_TYPE":0,"CLASSIFICATION_TYPE":"U","NORAD_CAT_ID":20576,"ELEMENT_SET_NO":999,"REV_AT_EPOCH":37205,"BSTAR":0.00056600809,"MEAN_MOTION_DOT":0.00016095,"MEAN_MOTION_DDOT":0}]
